ONEWEB-0207             
1 48242U 21031AJ  24159.31333629  .00000150  00000+0  37071-3 0  9994
2 48242  87.8969  76.8926 0001745  76.1096 284.0228 13.14502144151090
ONEWEB-0208             
1 48243U 21031AK  24158.53392151  .00000211  00000+0  53498-3 0  9992
2 48243  87.8969  77.0628 0002046  73.9284 286.2071 13.14502015151000
ONEWEB-0200             
1 48244U 21031AL  24159.33474353 -.00000139  00000+0 -40813-3 0  9995
2 48244  87.8969  76.9005 0002137  73.0673 287.0691 13.14502929151036
ONEWEB-0217             
1 48245U 21031AM  24159.50283018 -.00000072  00000+0 -22893-3 0  9995
2 48245  87.8967  76.8516 0002247  71.8180 288.3194 13.14502033151018
ONEWEB-0211             
1 48767U 21045A   24158.44876931  .00000240  00000+0  60238-3 0  9993
2 48767  87.9048  46.5871 0001996  81.5675 278.5681 13.15549219147029
ONEWEB-0223             
1 48768U 21045B   24159.38364287  .00000105  00000+0  24581-3 0  9995
2 48768  87.9050  46.4080 0002601  84.8309 275.3118 13.15550110147132
ONEWEB-0230             
1 48769U 21045C   24158.44241992  .00000173  00000+0  42595-3 0  9999
2 48769  87.9049  46.6661 0001849  84.4478 275.6864 13.15547181147274
ONEWEB-0237             
1 48770U 21045D   24159.64824782 -.00000042  00000+0 -14643-3 0  9998
2 48770  87.9054  46.3567 0002306  83.9800 276.1593 13.15546857148282
